IRIDIUM 150             
1 43257U 18030J   25152.14226217  .00000092  00000+0  25747-4 0  9992
2 43257  86.3957  89.7730 0002535  81.8502 278.2982 14.34218151375568
IRIDIUM 143             
1 43258U 18030K   25152.19300253  .00000095  00000+0  26694-4 0  9996
2 43258  86.3960  89.8296 0002666  78.2213 281.9282 14.34218311375512
IRIDIUM 161             
1 43478U 18047C   25151.78011745  .00000389  00000+0  10967-3 0  9998
2 43478  86.4497 247.7934 0002180  99.7222 260.4226 14.43273169370129
IRIDIUM 152             
1 43479U 18047D   25152.51456116  .00000963  00000+0  33681-3 0  9992
2 43479  86.3973 247.3468 0002293  98.4247 261.7208 14.34221021367933
IRIDIUM 147             
1 43480U 18047E   25152.52089965  .00000616  00000+0  21287-3 0  9993
2 43480  86.3976 247.3425 0002080  95.6092 264.5341 14.34216257367925
IRIDIUM 110             
1 43481U 18047F   25151.75979302  .00000017  00000+0 -11357-5 0  9996
2 43481  86.3975 247.7428 0001912 107.8621 252.2783 14.34217942367802
IRIDIUM 162             
1 43482U 18047G   25151.77382074  .00000381  00000+0  10719-3 0  9995
2 43482  86.4498 247.6916 0002300 103.5738 256.5719 14.43273168370115
IRIDIUM 160             
1 43569U 18061A   25152.54285531 -.00000301  00000+0 -11473-3 0  9995
2 43569  86.4004 215.8110 0002054  98.3998 261.7430 14.34215125358812
